FENGYUN 1C DEB          
1 32103U 99025CQV 17344.02774368  .00002388  00000-0  44074-3 0  9993
2 32103  96.7198 262.1115 0078654 123.3023 294.9938 14.64151575559320
